{
  "type": "FeatureCollection",
  "features": [
    {
      "type": "Feature",
      "properties": {
        "norad_id": 34121,
        "name": "COSMOS 2251 DEB",
        "group": "cosmos-2251-debris",
        "lat": -23.76422824269374,
        "lon": 72.55991178450402,
        "alt_km": 816.3685091325578,
        "timestamp": "2025-12-22T20:43:46.241916+00:00",
        "meta_object_name": "COSMOS 2251 DEB",
        "meta_object_id": "1993-036KS",
        "meta_epoch": "2025-12-22T05:27:52.103232",
        "meta_mean_motion": 13.91963089,
        "meta_eccentricity": 0.0240891,
        "meta_inclination": 73.9923,
        "meta_ra_of_asc_node": 80.911,
        "meta_arg_of_pericenter": 284.3753,
        "meta_mean_anomaly": 102.7576,
        "meta_ephemeris_type": 0,
        "meta_classification_type": "U",
        "meta_norad_cat_id": 34121,
        "meta_element_set_no": 999,
        "meta_rev_at_epoch": 85257,
        "meta_bstar": 0.0011252438,
        "meta_mean_motion_dot": 1.794e-05,
        "meta_mean_motion_ddot": 0,
        "tle_line1": "1 34121U 93036KS  25356.22768638  .00001794  00000+0  11252-2 0  9998",
        "tle_line2": "2 34121  73.9923  80.9110 0240891 284.3753 102.7576 13.91963089852575"
      },
      "geometry": {
        "type": "Point",
        "coordinates": [
          72.55991178450402,
          -23.76422824269374
        ]
      }
    },
    {
      "type": "Feature",
      "properties": {
        "norad_id": 34122,
        "name": "COSMOS 2251 DEB",
        "group": "cosmos-2251-debris",
        "lat": 7.141287028948682,
        "lon": 101.21153653968591,
        "alt_km": 620.1945071784503,
        "timestamp": "2025-12-22T20:43:46.241926+00:00",
        "meta_object_name": "COSMOS 2251 DEB",
        "meta_object_id": "1993-036KT",
        "meta_epoch": "2025-12-22T07:41:52.844928",
        "meta_mean_motion": 14.65152033,
        "meta_eccentricity": 0.00848802,
        "meta_inclination": 74.0366,
        "meta_ra_of_asc_node": 100.2006,
        "meta_arg_of_pericenter": 354.3443,
        "meta_mean_anomaly": 30.168,
        "meta_ephemeris_type": 0,
        "meta_classification_type": "U",
        "meta_norad_cat_id": 34122,
        "meta_element_set_no": 999,
        "meta_rev_at_epoch": 88825,
        "meta_bstar": 0.0010197374,
        "meta_mean_motion_dot": 5.753e-05,
        "meta_mean_motion_ddot": 0,
        "tle_line1": "1 34122U 93036KT  25356.32075052  .00005753  00000+0  10197-2 0  9997",
        "tle_line2": "2 34122  74.0366 100.2006 0084880 354.3443  30.1680 14.65152033888252"
      },
      "geometry": {
        "type": "Point",
        "coordinates": [
          101.21153653968591,
          7.141287028948682
        ]
      }
    },
    {
      "type": "Feature",
      "properties": {
        "norad_id": 34127,
        "name": "COSMOS 2251 DEB",
        "group": "cosmos-2251-debris",
        "lat": 41.693363554050286,
        "lon": -169.06315955710093,
        "alt_km": 777.7680919755621,
        "timestamp": "2025-12-22T20:43:46.241936+00:00",
        "meta_object_name": "COSMOS 2251 DEB",
        "meta_object_id": "1993-036KY",
        "meta_epoch": "2025-12-22T01:46:28.111872",
        "meta_mean_motion": 14.31623479,
        "meta_eccentricity": 0.0114796,
        "meta_inclination": 74.1791,
        "meta_ra_of_asc_node": 26.9935,
        "meta_arg_of_pericenter": 225.1428,
        "meta_mean_anomaly": 163.5218,
        "meta_ephemeris_type": 0,
        "meta_classification_type": "U",
        "meta_norad_cat_id": 34127,
        "meta_element_set_no": 999,
        "meta_rev_at_epoch": 86905,
        "meta_bstar": 0.0015210856,
        "meta_mean_motion_dot": 4.332e-05,
        "meta_mean_motion_ddot": 0,
        "tle_line1": "1 34127U 93036KY  25356.07393648  .00004332  00000+0  15211-2 0  9992",
        "tle_line2": "2 34127  74.1791  26.9935 0114796 225.1428 163.5218 14.31623479869058"
      },
      "geometry": {
        "type": "Point",
        "coordinates": [
          -169.06315955710093,
          41.693363554050286
        ]
      }
    },
    {
      "type": "Feature",
      "properties": {
        "norad_id": 34128,
        "name": "COSMOS 2251 DEB",
        "group": "cosmos-2251-debris",
        "lat": 3.621469888783332,
        "lon": -82.9021183371292,
        "alt_km": 547.6644046881574,
        "timestamp": "2025-12-22T20:43:46.241947+00:00",
        "meta_object_name": "COSMOS 2251 DEB",
        "meta_object_id": "1993-036KZ",
        "meta_epoch": "2025-12-22T05:23:11.424192",
        "meta_mean_motion": 15.01502667,
        "meta_eccentricity": 0.00259463,
        "meta_inclination": 73.9995,
        "meta_ra_of_asc_node": 277.3619,
        "meta_arg_of_pericenter": 27.2664,
        "meta_mean_anomaly": 122.5343,
        "meta_ephemeris_type": 0,
        "meta_classification_type": "U",
        "meta_norad_cat_id": 34128,
        "meta_element_set_no": 999,
        "meta_rev_at_epoch": 89309,
        "meta_bstar": 0.0016774332,
        "meta_mean_motion_dot": 0.00021886,
        "meta_mean_motion_ddot": 0,
        "tle_line1": "1 34128U 93036KZ  25356.22443778  .00021886  00000+0  16774-2 0  9998",
        "tle_line2": "2 34128  73.9995 277.3619 0025946  27.2664 122.5343 15.01502667893092"
      },
      "geometry": {
        "type": "Point",
        "coordinates": [
          -82.9021183371292,
          3.621469888783332
        ]
      }
    },
    {
      "type": "Feature",
      "properties": {
        "norad_id": 34129,
        "name": "COSMOS 2251 DEB",
        "group": "cosmos-2251-debris",
        "lat": 65.90741679695203,
        "lon": -0.48107841758868236,
        "alt_km": 615.9447405259225,
        "timestamp": "2025-12-22T20:43:46.241957+00:00",
        "meta_object_name": "COSMOS 2251 DEB",
        "meta_object_id": "1993-036LA",
        "meta_epoch": "2025-12-22T07:23:36.294144",
        "meta_mean_motion": 14.75897072,
        "meta_eccentricity": 0.00333994,
        "meta_inclination": 74.0353,
        "meta_ra_of_asc_node": 320.8001,
        "meta_arg_of_pericenter": 39.3329,
        "meta_mean_anomaly": 321.0261,
        "meta_ephemeris_type": 0,
        "meta_classification_type": "U",
        "meta_norad_cat_id": 34129,
        "meta_element_set_no": 999,
        "meta_rev_at_epoch": 61439,
        "meta_bstar": 0.0015802795,
        "meta_mean_motion_dot": 0.00010939,
        "meta_mean_motion_ddot": 0,
        "tle_line1": "1 34129U 93036LA  25356.30805896  .00010939  00000+0  15803-2 0  9990",
        "tle_line2": "2 34129  74.0353 320.8001 0033399  39.3329 321.0261 14.75897072614391"
      },
      "geometry": {
        "type": "Point",
        "coordinates": [
          -0.48107841758868236,
          65.90741679695203
        ]
      }
    },
    {
      "type": "Feature",
      "properties": {
        "norad_id": 34136,
        "name": "COSMOS 2251 DEB",
        "group": "cosmos-2251-debris",
        "lat": 20.436976987908498,
        "lon": 28.794858219294138,
        "alt_km": 659.3224535933368,
        "timestamp": "2025-12-22T20:43:46.241967+00:00",
        "meta_object_name": "COSMOS 2251 DEB",
        "meta_object_id": "1993-036LH",
        "meta_epoch": "2025-12-22T13:12:45.633888",
        "meta_mean_motion": 14.80137951,
        "meta_eccentricity": 0.00851104,
        "meta_inclination": 74.0197,
        "meta_ra_of_asc_node": 23.2824,
        "meta_arg_of_pericenter": 143.5746,
        "meta_mean_anomaly": 10.4682,
        "meta_ephemeris_type": 0,
        "meta_classification_type": "U",
        "meta_norad_cat_id": 34136,
        "meta_element_set_no": 999,
        "meta_rev_at_epoch": 90155,
        "meta_bstar": 0.00034259693,
        "meta_mean_motion_dot": 2.73e-05,
        "meta_mean_motion_ddot": 0,
        "tle_line1": "1 34136U 93036LH  25356.55052817  .00002730  00000+0  34260-3 0  9991",
        "tle_line2": "2 34136  74.0197  23.2824 0085110 143.5746  10.4682 14.80137951901553"
      },
      "geometry": {
        "type": "Point",
        "coordinates": [
          28.794858219294138,
          20.436976987908498
        ]
      }
    },
    {
      "type": "Feature",
      "properties": {
        "norad_id": 34139,
        "name": "COSMOS 2251 DEB",
        "group": "cosmos-2251-debris",
        "lat": 56.152515278090966,
        "lon": -99.95677081486473,
        "alt_km": 702.9843208017892,
        "timestamp": "2025-12-22T20:43:46.241977+00:00",
        "meta_object_name": "COSMOS 2251 DEB",
        "meta_object_id": "1993-036LL",
        "meta_epoch": "2025-12-22T03:05:41.877024",
        "meta_mean_motion": 14.59175422,
        "meta_eccentricity": 0.00424471,
        "meta_inclination": 74.0299,
        "meta_ra_of_asc_node": 236.1656,
        "meta_arg_of_pericenter": 305.7485,
        "meta_mean_anomaly": 215.4128,
        "meta_ephemeris_type": 0,
        "meta_classification_type": "U",
        "meta_norad_cat_id": 34139,
        "meta_element_set_no": 999,
        "meta_rev_at_epoch": 88286,
        "meta_bstar": 0.0012901805,
        "meta_mean_motion_dot": 6.132e-05,
        "meta_mean_motion_ddot": 0,
        "tle_line1": "1 34139U 93036LL  25356.12895691  .00006132  00000+0  12902-2 0  9990",
        "tle_line2": "2 34139  74.0299 236.1656 0042447 305.7485 215.4128 14.59175422882860"
      },
      "geometry": {
        "type": "Point",
        "coordinates": [
          -99.95677081486473,
          56.152515278090966
        ]
      }
    }
  ]
}